		  M50 Cartesian                         M50 Keplerian  
-----------------------------------       --------------------------------
 X    =        2655674.79                 A    =         6775402.53  meter
 Y    =        3463595.79  meter          E    =           .0015347
 Z    =       -5195958.35                 I    =           51.93877
 XDOT =      -4808.350379                 Wp   =          103.16817
 YDOT =       5792.977358  meter/sec      RA   =          121.29670  deg
 ZDOT =       1404.077973                 TA   =          180.29664
										  MA   =          180.29756
										  Ha   =            220.099  n.mi
										  Hp   =            212.881

		  M50 Cartesian                         J2K Cartesian  
-----------------------------------       --------------------------------
 X    =        8712843.80                 X    =         2641985.91
 Y    =       11363503.25  feet           Y    =         3493216.84  meter
 Z    =      -17047107.43                 Z    =        -5183091.17
 XDOT =     -15775.427754                 XDOT =       -4879.591842
 YDOT =      19005.831226  feet/sec       YDOT =        5738.808819  meter/sec
 ZDOT =       4606.555030                 ZDOT =        1380.547640

		  TDR Cartesian                         TDR Cartesian  
-----------------------------------       --------------------------------
 X    =        4043849.74                 X    =         1232565.40
 Y    =      -13805228.00  feet           Y    =        -4207833.49  meter
 Z    =      -16991459.16                 Z    =        -5178996.75
 XDOT =      23655.042240                 XDOT =        7210.056875
 YDOT =       1387.412351  feet/sec       YDOT =         422.883284  meter/sec
 ZDOT =       4502.753013                 ZDOT =        1372.439118


The mean element set is posted at the UTC for which position is
just north of the next ascending node relative to the above
vector time


TWO LINE MEAN ELEMENT SET

ISS
1 25544U 98067A   16228.46489348  .00016717  00000-0  10270-3 0  9035
2 25544  51.6431 122.2483 0001572 125.1874 234.9426 15.55014495 14203


Satellite: ISS
Catalog Number: 25544
Epoch time:      16228.46489348   =   yrday.fracday
Element set:     903
Inclination:       51.6431  deg
RA of node:       122.2483  deg
Eccentricity:     .0001572     
Arg of perigee:   125.1874  deg
Mean anomaly:     234.9426  deg
Mean motion:   15.55014495  rev/day
Decay rate:    1.67170E-04  rev/day^2
Epoch rev:            1420
Checksum:              302


Coasting Arc #5 (Orbit 1435)
---------------------------------------

Vector Time (GMT): 2016/229/10:49:40.629
Vector Time (MET): N/A
Weight (LBS)     : 930011.2

		  M50 Cartesian                         M50 Keplerian  
-----------------------------------       --------------------------------
 X    =       -1318721.37                 A    =         6778695.55  meter
 Y    =       -5017954.80  meter          E    =           .0010501
 Z    =        4354922.24                 I    =           51.96595
 XDOT =       5224.037384                 Wp   =           78.79712
 YDOT =      -4407.943076  meter/sec      RA   =          116.31583  deg
 ZDOT =      -3488.064058                 TA   =           46.49266
										  MA   =           46.40543
										  Ha   =            220.109  n.mi
										  Hp   =            212.823

		  M50 Cartesian                         J2K Cartesian  
-----------------------------------       --------------------------------
 X    =       -4326513.68                 X    =        -1283665.24
 Y    =      -16463106.29  feet           Y    =        -5032505.59  meter
 Z    =       14287802.62                 Z    =         4348601.51
 XDOT =      17139.230264                 XDOT =        5289.883039
 YDOT =     -14461.755498  feet/sec       YDOT =       -4349.156248  meter/sec
 ZDOT =     -11443.779717                 ZDOT =       -3462.527544

		  TDR Cartesian                         TDR Cartesian  
-----------------------------------       --------------------------------
 X    =      -10527775.55                 X    =        -3208865.99
 Y    =       13404587.94  feet           Y    =         4085718.40  meter
 Z    =       14261025.81                 Z    =         4346760.67
 XDOT =     -20916.808828                 XDOT =       -6375.443331
 YDOT =      -4340.591185  feet/sec       YDOT =       -1323.012193  meter/sec
 ZDOT =     -11331.428495                 ZDOT =       -3453.819405


The mean element set is posted at the UTC for which position is
just north of the next ascending node relative to the above
vector time


TWO LINE MEAN ELEMENT SET

ISS
1 25544U 98067A   16229.49313707  .00016717  00000-0  10270-3 0  9045
2 25544  51.6432 117.1169 0001541 129.6795 230.4494 15.55023651 14362


Satellite: ISS
Catalog Number: 25544
Epoch time:      16229.49313707   =   yrday.fracday
Element set:     904
Inclination:       51.6432  deg
RA of node:       117.1169  deg
Eccentricity:     .0001541     
Arg of perigee:   129.6795  deg
Mean anomaly:     230.4494  deg
Mean motion:   15.55023651  rev/day
Decay rate:    1.67170E-04  rev/day^2
Epoch rev:            1436
Checksum:              301


Coasting Arc #6 (Orbit 1442)
---------------------------------------

Vector Time (GMT): 2016/229/22:24:00.000
Vector Time (MET): N/A
Weight (LBS)     : 930011.2

		  M50 Cartesian                         M50 Keplerian  
-----------------------------------       --------------------------------
 X    =        1459375.15                 A    =         6778791.94  meter
 Y    =        5030354.21  meter          E    =           .0010015
 Z    =       -4313756.96                 I    =           51.97411
 XDOT =      -5054.020150                 Wp   =          116.32490
 YDOT =       4520.916262  meter/sec      RA   =          113.91674  deg
 ZDOT =       3564.185082                 TA   =          189.86714
										  MA   =          189.88682
										  Ha   =            219.995  n.mi
										  Hp   =            212.860

		  M50 Cartesian                         J2K Cartesian  
-----------------------------------       --------------------------------
 X    =        4787976.20                 X    =         1423969.93
 Y    =       16503786.77  feet           Y    =         5046475.89  meter
 Z    =      -14152745.92                 Z    =        -4306753.89
 XDOT =     -16581.430939                 XDOT =       -5121.511477
 YDOT =      14832.402433  feet/sec       YDOT =        4464.021512  meter/sec
 ZDOT =      11693.520610                 ZDOT =        3539.470434

		  TDR Cartesian                         TDR Cartesian  
-----------------------------------       --------------------------------
 X    =      -11657817.62                 X    =        -3553302.81
 Y    =       12658450.04  feet           Y    =         3858295.57  meter
 Z    =      -14122989.83                 Z    =        -4304687.30
 XDOT =     -20357.119667                 XDOT =       -6204.850074
 YDOT =      -5830.460672  feet/sec       YDOT =       -1777.124413  meter/sec
 ZDOT =      11584.736003                 ZDOT =        3531.027534


The mean element set is posted at the UTC for which position is
just north of the next ascending node relative to the above
vector time


TWO LINE MEAN ELEMENT SET

ISS
1 25544U 98067A   16229.94298935  .00016717  00000-0  10270-3 0  9051
2 25544  51.6439 114.8684 0001801 144.3045 215.8229 15.55052868 14439


Satellite: ISS
Catalog Number: 25544
Epoch time:      16229.94298935   =   yrday.fracday
Element set:     905
Inclination:       51.6439  deg
RA of node:       114.8684  deg
Eccentricity:     .0001801     
Arg of perigee:   144.3045  deg
Mean anomaly:     215.8229  deg
Mean motion:   15.55052868  rev/day
Decay rate:    1.67170E-04  rev/day^2
Epoch rev:            1443
Checksum:              324


Coasting Arc #7 (Orbit 1458)
---------------------------------------

Vector Time (GMT): 2016/230/22:24:00.000
Vector Time (MET): N/A
Weight (LBS)     : 930011.2

		  M50 Cartesian                         M50 Keplerian  
-----------------------------------       --------------------------------
 X    =        -214580.88                 A    =         6783315.27  meter
 Y    =       -6157899.29  meter          E    =           .0014692
 Z    =        2819453.88                 I    =           52.00075
 XDOT =       5110.277894                 Wp   =          104.72858
 YDOT =      -2536.410060  meter/sec      RA   =          108.95054  deg
 ZDOT =      -5132.184037                 TA   =           43.39963
										  MA   =           43.28405
										  Ha   =            220.028  n.mi
										  Hp   =            212.852

		  M50 Cartesian                         J2K Cartesian  
-----------------------------------       --------------------------------
 X    =        -704005.51                 X    =         -159401.15
 Y    =      -20203081.66  feet           Y    =        -6159990.25  meter
 Z    =        9250176.77                 Z    =         2818545.76
 XDOT =      16766.003589                 XDOT =        5163.190280
 YDOT =      -8321.555315  feet/sec       YDOT =       -2478.967843  meter/sec
 ZDOT =     -16837.874138                 ZDOT =       -5107.231510

		  TDR Cartesian                         TDR Cartesian  
-----------------------------------       --------------------------------
 X    =       16753358.25                 X    =         5106423.59
 Y    =      -11315439.08  feet           Y    =        -3448945.83  meter
 Z    =        9247255.18                 Z    =         2818563.38
 XDOT =      15152.926562                 XDOT =        4618.612016
 YDOT =       8714.328587  feet/sec       YDOT =        2656.127353  meter/sec
 ZDOT =     -16728.376114                 ZDOT =       -5098.809040


The mean element set is posted at the UTC for which position is
just north of the next ascending node relative to the above
vector time


TWO LINE MEAN ELEMENT SET

